[{"OBJECT_NAME":"STARLINK-32927","OBJECT_ID":"2025-037T","EPOCH":"2026-03-09T22:09:31.516416","MEAN_MOTION":14.98326947,"ECCENTRICITY":0.00029684,"INCLINATION":70.0035,"RA_OF_ASC_NODE":354.001,"ARG_OF_PERICENTER":263.37,"MEAN_ANOMALY":96.7121,"EPHEMERIS_TYPE":0,"CLASSIFICATION_TYPE":"U","NORAD_CAT_ID":63094,"ELEMENT_SET_NO":999,"REV_AT_EPOCH":5858,"BSTAR":-0.00010734745,"MEAN_MOTION_DOT":-1.373e-5,"MEAN_MOTION_DDOT":0},{"OBJECT_NAME":"CZ-6A DEB","OBJECT_ID":"2022-151ACK","EPOCH":"2026-03-09T17:07:55.484832","MEAN_MOTION":14.91029585,"ECCENTRICITY":0.00541971,"INCLINATION":98.6318,"RA_OF_ASC_NODE":144.964,"ARG_OF_PERICENTER":183.961,"MEAN_ANOMALY":176.1184,"EPHEMERIS_TYPE":0,"CLASSIFICATION_TYPE":"U","NORAD_CAT_ID":56267,"ELEMENT_SET_NO":999,"REV_AT_EPOCH":16429,"BSTAR":0.0040603804,"MEAN_MOTION_DOT":0.00041466,"MEAN_MOTION_DDOT":0}]
